CALSPHERE 1             
1 00900U 64063C   08107.88242800  .00000106  00000-0  10855-3 0  4675
2 00900  90.1747 319.5502 0029391  67.6876 292.7383 13.70306331161085
CALSPHERE 2             
1 00902U 64063E   08107.49633419  .00000075  00000-0  10000-3 0  7348
2 00902  90.1759 322.7670 0019975  48.2203 312.0640 13.52452635959691
LCS 1                   
1 01361U 65034C   08107.19196640  .00000009  00000-0  10000-3 0   119
2 01361  32.1380  92.7892 0009359 189.2134 170.8192  9.89274535553071
TEMPSAT 1               
1 01512U 65065E   08107.50797806  .00000060  00000-0  10000-3 0  8235
2 01512  89.8233 307.9750 0070040 156.3778 204.0611 13.33249499 75770
CALSPHERE 4(A)          
1 01520U 65065H   08107.47009017  .00000061  00000-0  10000-3 0  9535
2 01520  90.1865  75.3299 0071941  88.9191 272.0197 13.35285369 77302
OPS 5712 (P/L 160)      
1 02826U 67053A   08107.39703320  .00000513  00000-0  18936-3 0  4075
2 02826  69.9331  69.0903 0005600 359.2045   0.9090 14.37906728105930
OPS 5712 (P/L 153)      
1 02874U 67053H   08108.00167255 -.00000013  00000-0  29640-4 0  7779
2 02874  69.9717 284.0649 0007846 180.5129 179.5970 13.95902895 81060
SURCAL 150B             
1 02909U 67053J   08107.47854670  .00000538  00000-0  16752-3 0  5747
2 02909  69.9549 255.6216 0005741 210.7241 149.3554 14.46056928111273
RIGIDSPHERE 2 (LCS 4)   
1 05398U 71067E   08108.09728452  .00000163  00000-0  53496-4 0  2400
2 05398  87.6279   6.3985 0067130 131.8950 228.7994 14.31050873923626
RADCAT                  
1 06212U 72076A   08107.39820243  .00001994  00000-0  78281-4 0  4437
2 06212  98.5562  45.4207 0004191  36.4760 323.6748 15.27212773 57700
